NORAD_CAT_ID,OBJECT_NAME,OBJECT_TYPE,EPOCH,MEAN_MOTION,ECCENTRICITY,INCLINATION,RA_OF_ASC_NODE,ARG_OF_PERICENTER,MEAN_ANOMALY,BSTAR,MEAN_MOTION_DOT,MEAN_MOTION_DDOT,TLE_LINE0,TLE_LINE1,TLE_LINE2,SEMIMAJOR_AXIS,PERIOD,APOGEE,PERIGEE,DECAYED
53178.0,STARLINK-4280,PAYLOAD,2022-09-09 14:00:01,15.49887943,0.0001813,53.215,140.5825,49.0335,213.9502,0.0010787,0.00061258,0.0,0 STARLINK-4280,1 53178U 22083AY  22252.58334491  .00061258  00000-0  10787-2 0  9996,2 53178  53.2150 140.5825 0001813  49.0335 213.9502 15.49887943  9137,6795.191,92.91,418.288,415.824,0.0
53178.0,STARLINK-4280,PAYLOAD,2022-09-09 22:00:00,15.499347199999995,0.0001955,53.2148,138.991,46.9732,276.9529,-0.00020313,-0.00011984,0.0,0 STARLINK-4280,1 53178U 22083AY  22252.91667824 -.00011984  00000-0 -20313-3 0  9992,2 53178  53.2148 138.9910 0001955  46.9732 276.9529 15.49934720  1309,6795.054,92.907,418.247,415.59,0.0
53178.0,STARLINK-4280,PAYLOAD,2022-09-10 04:00:00,15.4991734,0.0002026,53.2153,137.7935,42.67100000000001,236.9855,0.00083607,0.00047343,0.0,0 STARLINK-4280,1 53178U 22083AY  22253.16667824  .00047343  00000-0  83607-3 0  9991,2 53178  53.2153 137.7935 0002026  42.6710 236.9855 15.49917340  9224,6795.105,92.908,418.346,415.593,0.0
53178.0,STARLINK-4280,PAYLOAD,2022-09-10 12:00:00,15.49944538,0.0001694,53.2146,136.2016,47.6629,292.9587,-0.00073508,-0.00042037,0.0,0 STARLINK-4280,1 53178U 22083AY  22253.50001157 -.00042037  00000-0 -73508-3 0  9996,2 53178  53.2146 136.2016 0001694  47.6629 292.9587 15.49944538  9272,6795.025,92.907,418.041,415.739,0.0
53178.0,STARLINK-4280,PAYLOAD,2022-09-10 14:00:01,15.49941738,0.000167,53.2149,135.8019,47.6955,38.1742,-0.00084802,-0.00048383,0.0,0 STARLINK-4280,1 53178U 22083AY  22253.58334491 -.00048383  00000-0 -84802-3 0  9993,2 53178  53.2149 135.8019 0001670  47.6955  38.1742 15.49941738  1307,6795.033,92.907,418.033,415.764,0.0
53178.0,STARLINK-4280,PAYLOAD,2022-09-10 22:00:00,15.50100496,0.0001839,53.216,134.2038,42.9929,103.8027,-0.010886,-0.0057913,0.0,0 STARLINK-4280,1 53178U 22083AY  22253.91667824 -.00579130  00000-0 -10886-1 0  9997,2 53178  53.2160 134.2038 0001839  42.9929 103.8027 15.50100496  1306,6794.569,92.897,417.684,415.185,0.0
53178.0,STARLINK-4280,PAYLOAD,2022-09-11 04:00:00,15.49765099,0.0001943999999999,53.2162,133.0053,32.3425,70.2143,-0.010182,-0.00538084,0.0,0 STARLINK-4280,1 53178U 22083AY  22254.16667824 -.00538084  00000-0 -10182-1 0  9997,2 53178  53.2162 133.0053 0001944  32.3425  70.2143 15.49765099  9389,6795.55,92.917,418.736,416.094,0.0
53178.0,STARLINK-4280,PAYLOAD,2022-09-11 14:00:01,15.49230298,0.0001549,53.2173,131.0048,43.1558,225.0179,-0.020998,-0.01057468,0.0,0 STARLINK-4280,1 53178U 22083AY  22254.58334491 -.01057468  00000-0 -20998-1 0  9993,2 53178  53.2173 131.0048 0001549  43.1558 225.0179 15.49230298  9445,6797.113,92.949,420.031,417.926,0.0
53178.0,STARLINK-4280,PAYLOAD,2022-09-11 22:00:00,15.48472086,0.0001604,53.2172,129.4122,37.8037,290.0343,-0.021603,-0.01059016,0.0,0 STARLINK-4280,1 53178U 22083AY  22254.91667824 -.01059016  00000-0 -21603-1 0  9994,2 53178  53.2172 129.4122 0001604  37.8037 290.0343 15.48472086  1306,6799.331999999999,92.995,422.288,420.106,0.0
53178.0,STARLINK-4280,PAYLOAD,2022-09-12 12:00:00,15.47140496,0.0001505,53.2173,126.6244,36.5925,303.4669,-0.022541,-0.01054926,0.0,0 STARLINK-4280,1 53178U 22083AY  22255.50001157 -.01054926  00000-0 -22541-1 0  9998,2 53178  53.2173 126.6244 0001505  36.5925 303.4669 15.47140496  9587,6803.233,93.075,426.122,424.074,0.0
53178.0,STARLINK-4280,PAYLOAD,2022-09-12 14:00:01,15.46951849,0.000169,53.2175,126.2267,36.189,48.2447,-0.022743,-0.01057219,0.0,0 STARLINK-4280,1 53178U 22083AY  22255.58334491 -.01057219  00000-0 -22743-1 0  9998,2 53178  53.2175 126.2267 0001690  36.1890  48.2447 15.46951849  1303,6803.786,93.086,426.801,424.501,0.0
53178.0,STARLINK-4280,PAYLOAD,2022-09-12 22:00:00,15.4619619,0.0001804,53.217,124.6418,38.2214,103.1353,-0.0234419999999999,-0.01061085,0.0,0 STARLINK-4280,1 53178U 22083AY  22255.91667824 -.01061085  00000-0 -23442-1 0  9997,2 53178  53.2170 124.6418 0001804  38.2214 103.1353 15.46196190  1305,6806.003000000002,93.132,429.095,426.64,0.0
53178.0,STARLINK-4280,PAYLOAD,2022-09-13 06:00:00,15.45434253,0.0001751999999999,53.2172,123.0518,40.8121,156.5635,-0.024009,-0.01058698,0.0,0 STARLINK-4280,1 53178U 22083AY  22256.25001157 -.01058698  00000-0 -24009-1 0  9992,2 53178  53.2172 123.0518 0001752  40.8121 156.5635 15.45434253  9700,6808.239000000001,93.178,431.297,428.912,0.0
53178.0,STARLINK-4280,PAYLOAD,2022-09-13 14:00:01,15.44673408,0.0001585,53.2175,121.465,45.428,207.0512,-0.024583,-0.01056196,0.0,0 STARLINK-4280,1 53178U 22083AY  22256.58334491 -.01056196  00000-0 -24583-1 0  9996,2 53178  53.2175 121.4650 0001585  45.4280 207.0512 15.44673408  1303,6810.475,93.224,433.419,431.26,0.0
53178.0,STARLINK-4280,PAYLOAD,2022-09-13 22:00:00,15.43914836,0.0001793,53.2173,119.8835,33.9798,272.6878,-0.025268,-0.01057708,0.0,0 STARLINK-4280,1 53178U 22083AY  22256.91667824 -.01057708  00000-0 -25268-1 0  9993,2 53178  53.2173 119.8835 0001793  33.9798 272.6878 15.43914836  1309,6812.705,93.269,435.792,433.349,0.0
53178.0,STARLINK-4280,PAYLOAD,2022-09-14 04:00:00,15.43346424,0.0001796,53.217,118.6968,35.6841,221.0267,-0.0258029999999999,-0.01059231,0.0,0 STARLINK-4280,1 53178U 22083AY  22257.16667824 -.01059231  00000-0 -25803-1 0  9999,2 53178  53.2170 118.6968 0001796  35.6841 221.0267 15.43346424  9840,6814.378000000002,93.304,437.467,435.019,0.0
53178.0,STARLINK-4280,PAYLOAD,2022-09-14 14:00:01,15.42402755,0.0001841999999999,53.2163,116.7213,29.3262,22.9785,-0.026781,-0.01079293,0.0,0 STARLINK-4280,1 53178U 22083AY  22257.58334491 -.01079293  00000-0 -26781-1 0  9992,2 53178  53.2163 116.7213 0001842  29.3262  22.9785 15.42402755  1308,6817.156999999997,93.361,440.278,437.767,0.0
53178.0,STARLINK-4280,PAYLOAD,2022-09-14 20:00:01,15.41825775,0.0001929,53.2172,115.5375,27.2967,333.6877,-0.027081,-0.01071107,0.0,0 STARLINK-4280,1 53178U 22083AY  22257.83334491 -.01071107  00000-0 -27081-1 0  9990,2 53178  53.2172 115.5375 0001929  27.2967 333.6877 15.41825775  9941,6818.858,93.396,442.038,439.408,0.0
53178.0,STARLINK-4280,PAYLOAD,2022-09-14 22:00:00,15.41636605,0.0002129,53.2173,115.1437,28.2817,75.4796,-0.0272889999999999,-0.01072436,0.0,0 STARLINK-4280,1 53178U 22083AY  22257.91667824 -.01072436  00000-0 -27289-1 0  9994,2 53178  53.2173 115.1437 0002129  28.2817  75.4796 15.41636605  1300,6819.416,93.407,442.733,439.829,0.0
53178.0,STARLINK-4280,PAYLOAD,2022-09-15 14:00:01,15.40134775,0.0001896999999999,53.2162,111.9923,42.8157,161.1008,-0.029247,-0.01091407,0.0,0 STARLINK-4280,1 53178U 22083AY  22258.58334491 -.01091407  00000-0 -29247-1 0  9994,2 53178  53.2162 111.9923 0001897  42.8157 161.1008 15.40134775  1301,6823.848000000001,93.498,447.008,444.419,0.0
53178.0,STARLINK-4280,PAYLOAD,2022-09-15 22:00:00,15.39356466,0.0001898,53.2173,110.4199,36.1881,216.4536,-0.029344,-0.01069074,0.0,0 STARLINK-4280,1 53178U 22083AY  22258.91667824 -.01069074  00000-0 -29344-1 0  9993,2 53178  53.2173 110.4199 0001898  36.1881 216.4536 15.39356466  1304,6826.148,93.546,449.309,446.718,0.0
53178.0,STARLINK-4280,PAYLOAD,2022-09-16 14:00:01,15.37836245,0.0001641,53.2173,107.2779,36.4373,310.8958,-0.030767,-0.01066417,0.0,0 STARLINK-4280,1 53178U 22083AY  22259.58334491 -.01066417  00000-0 -30767-1 0  9997,2 53178  53.2173 107.2779 0001641  36.4373 310.8958 15.37836245  1300,6830.646,93.638,453.632,451.39,0.0
53178.0,STARLINK-4280,PAYLOAD,2022-09-16 22:00:00,15.37079983,0.0001908,53.2173,105.7125,30.2845,3.0226,-0.031728,-0.01072449,0.0,0 STARLINK-4280,1 53178U 22083AY  22259.91667824 -.01072449  00000-0 -31728-1 0  9993,2 53178  53.2173 105.7125 0001908  30.2845   3.0226 15.37079983 10262,6832.886,93.684,456.055,453.448,0.0
53178.0,STARLINK-4280,PAYLOAD,2022-09-17 14:00:01,15.35558018,0.0001768,53.2175,102.5813,40.4272,82.0958,-0.033135,-0.01066594,0.0,0 STARLINK-4280,1 53178U 22083AY  22260.58334491 -.01066594  00000-0 -33135-1 0  9997,2 53178  53.2175 102.5813 0001768  40.4272  82.0958 15.35558018  1307,6837.401,93.777,460.474,458.057,0.0
53178.0,STARLINK-4280,PAYLOAD,2022-09-17 22:00:00,15.34798802,0.0002154999999999,53.2174,101.0214,31.7218,134.0379,-0.033971,-0.01067176,0.0,0 STARLINK-4280,1 53178U 22083AY  22260.91667824 -.01067176  00000-0 -33971-1 0  9998,2 53178  53.2174 101.0214 0002155  31.7218 134.0379 15.34798802  1300,6839.655,93.823,462.994,460.046,0.0
53178.0,STARLINK-4280,PAYLOAD,2022-09-18 14:00:01,15.33280003,0.0001857,53.2175,97.901,37.5878,211.9746,-0.03564,-0.01066591,0.0,0 STARLINK-4280,1 53178U 22083AY  22261.58335648 -.01066591  00000-0 -35640-1 0  9993,2 53178  53.2175  97.9010 0001857  37.5878 211.9746 15.33280003  1303,6844.170999999999,93.916,467.307,464.765,0.0
53178.0,STARLINK-4280,PAYLOAD,2022-09-18 22:00:00,15.32520588,0.0001999,53.2176,96.3465,31.1123,258.8851,-0.036529,-0.01067181,0.0,0 STARLINK-4280,1 53178U 22083AY  22261.91667824 -.01067181  00000-0 -36529-1 0  9997,2 53178  53.2176  96.3465 0001999  31.1123 258.8851 15.32520588  1302,6846.432,93.963,469.666,466.92800000000005,0.0
53178.0,STARLINK-4280,PAYLOAD,2022-09-19 14:00:01,15.31001408,0.0001428,53.2176,93.237,47.5711,320.6894,-0.038296,-0.01066506,0.0,0 STARLINK-4280,1 53178U 22083AY  22262.58334491 -.01066506  00000-0 -38296-1 0  9995,2 53178  53.2176  93.2370 0001428  47.5711 320.6894 15.31001408 10673,6850.96,94.056,473.804,471.847,0.0
53178.0,STARLINK-4280,PAYLOAD,2022-09-19 22:00:00,15.30242072,0.0001809,53.2176,91.6875,34.1423,11.8794,-0.039257,-0.01067628,0.0,0 STARLINK-4280,1 53178U 22083AY  22262.91667824 -.01067628  00000-0 -39257-1 0  9995,2 53178  53.2176  91.6875 0001809  34.1423  11.8794 15.30242072  1301,6853.226,94.103,476.331,473.852,0.0
